IRIDIUM 106             
1 41917U 17003A   23293.47584762  .00000337  00000+0  11345-3 0  9994
2 41917  86.3954 134.2344 0001940  91.0167 269.1251 14.34216015354070
IRIDIUM 103             
1 41918U 17003B   23293.11432558  .00000414  00000+0  14071-3 0  9996
2 41918  86.3959 134.2881 0001766  75.1814 284.9577 14.34215741354048
IRIDIUM 109             
1 41919U 17003C   23293.53928647  .00000024  00000+0  13302-5 0  9997
2 41919  86.3954 134.1543 0002275  82.7803 277.3652 14.34214268354072
IRIDIUM 102             
1 41920U 17003D   23293.50754348  .00000019  00000+0 -14928-6 0  9992
2 41920  86.3951 134.1119 0002309  85.2166 274.9293 14.34210180354150
IRIDIUM 105             
1 41921U 17003E   23293.47820351  .00000225  00000+0  73122-4 0  9994
2 41921  86.3920 102.5347 0001992  89.2124 270.9300 14.34224527356005
IRIDIUM 104             
1 41922U 17003F   23293.52024588  .00000112  00000+0  33049-4 0  9998
2 41922  86.3953 134.1343 0002062  81.0298 279.1131 14.34213942354145
IRIDIUM 114             
1 41923U 17003G   23293.52659531  .00000493  00000+0  16896-3 0  9993
2 41923  86.3949 134.1198 0002114  81.0949 279.0486 14.34216930354142
IRIDIUM 108             
1 41924U 17003H   23293.41534761  .00000216  00000+0  69891-4 0  9996
2 41924  86.3914 102.5013 0001814  95.6388 264.5014 14.34219261355961
